[
    {
        "Altitude(m)": 569084.1567312549,
        "Argument of Periapsis(deg)": -0.037671934638287344,
        "Eccentricity": 0.0,
        "Inclination(deg)": 97.0,
        "Latitude(deg)": 39.65759791987159,
        "Longitude(deg)": 81.88131169112249,
        "Mean Anomaly(deg)": 140.10993878197914,
        "RAAN(deg)": 0.009911756030851284,
        "Satellite Name": "Starlink Shell 3 1597",
        "Satellite Number": 1597,
        "Semi-Major Axis(m)": 6938478.169268562,
        "Time(s)": 950
    },
    {
        "Altitude(m)": 568954.0840321886,
        "Argument of Periapsis(deg)": -0.03806848131869037,
        "Eccentricity": 0.0,
        "Inclination(deg)": 97.0,
        "Latitude(deg)": 39.03867792143466,
        "Longitude(deg)": 81.71260888780328,
        "Mean Anomaly(deg)": 140.7354149796842,
        "RAAN(deg)": 0.010016090304860243,
        "Satellite Name": "Starlink Shell 3 1597",
        "Satellite Number": 1597,
        "Semi-Major Axis(m)": 6938478.169268562,
        "Time(s)": 960
    },
    {
        "Altitude(m)": 568825.4111093892,
        "Argument of Periapsis(deg)": -0.0384650279990934,
        "Eccentricity": 0.0,
        "Inclination(deg)": 97.0,
        "Latitude(deg)": 38.41955011074892,
        "Longitude(deg)": 81.54609801141396,
        "Mean Anomaly(deg)": 141.36089117738925,
        "RAAN(deg)": 0.010120424578869205,
        "Satellite Name": "Starlink Shell 3 1597",
        "Satellite Number": 1597,
        "Semi-Major Axis(m)": 6938478.169268562,
        "Time(s)": 970
    },
    {
        "Altitude(m)": 568698.2222799596,
        "Argument of Periapsis(deg)": -0.03886157467949641,
        "Eccentricity": 0.0,
        "Inclination(deg)": 97.0,
        "Latitude(deg)": 37.800220152832964,
        "Longitude(deg)": 81.38169477820134,
        "Mean Anomaly(deg)": 141.98636737509426,
        "RAAN(deg)": 0.010224758852878164,
        "Satellite Name": "Starlink Shell 3 1597",
        "Satellite Number": 1597,
        "Semi-Major Axis(m)": 6938478.169268562,
        "Time(s)": 980
    },
    {
        "Altitude(m)": 568572.6013727698,
        "Argument of Periapsis(deg)": -0.03925812135989944,
        "Eccentricity": 0.0,
        "Inclination(deg)": 97.0,
        "Latitude(deg)": 37.18069352005041,
        "Longitude(deg)": 81.21931913801623,
        "Mean Anomaly(deg)": 142.6118435727993,
        "RAAN(deg)": 0.010329093126887127,
        "Satellite Name": "Starlink Shell 3 1597",
        "Satellite Number": 1597,
        "Semi-Major Axis(m)": 6938478.169268562,
        "Time(s)": 990
    }
]